{"type": "FeatureCollection", "features": [ {"type": "Feature", "properties": {"norad_id": 66809, "name": "STARLINK-35979", "group": "last-30-days", "lat": -35.59991927452716, "lon": 41.85036868948637, "alt_km": 417.29495846409463, "timestamp": "2025-12-26T03:50:10.807737+00:00", "meta": {"OBJECT_NAME": "STARLINK-35979", "OBJECT_ID": "2025-278U", "EPOCH": "2025-12-25T20:00:01.999008", "MEAN_MOTION": 15.50577543, "ECCENTRICITY": 0.0001692, "INCLINATION": 43.0002, "RA_OF_ASC_NODE": 173.5606, "ARG_OF_PERICENTER": 278.4131, "MEAN_ANOMALY": 295.5229, "EPHEMERIS_TYPE": 0, "CLASSIFICATION_TYPE": "U", "NORAD_CAT_ID": 66809, "ELEMENT_SET_NO": 999, "REV_AT_EPOCH": 506, "BSTAR": -0.0007427, "MEAN_MOTION_DOT": -0.00043668, "MEAN_MOTION_DDOT": 0}, "tle": {"line1": "1 66809U 25278U   25359.83335647 -.00043668  00000+0 -74270-3 0  9997", "line2": "2 66809  43.0002 173.5606 0001692 278.4131 295.5229 15.50577543  5069"}}, "geometry": {"type": "Point", "coordinates": [41.85036868948637, -35.59991927452716]}}, {"type": "Feature", "properties": {"norad_id": 66810, "name": "STARLINK-36046", "group": "last-30-days", "lat": -33.859522932689885, "lon": 37.71730016784317, "alt_km": 417.3635798585301, "timestamp": "2025-12-26T03:50:10.807747+00:00", "meta": {"OBJECT_NAME": "STARLINK-36046", "OBJECT_ID": "2025-278V", "EPOCH": "2025-12-25T20:00:01.999008", "MEAN_MOTION": 15.50578861, "ECCENTRICITY": 0.0001382, "INCLINATION": 43.0001, "RA_OF_ASC_NODE": 173.5717, "ARG_OF_PERICENTER": 274.654, "MEAN_ANOMALY": 295.4509, "EPHEMERIS_TYPE": 0, "CLASSIFICATION_TYPE": "U", "NORAD_CAT_ID": 66810, "ELEMENT_SET_NO": 999, "REV_AT_EPOCH": 483, "BSTAR": -0.00083493, "MEAN_MOTION_DOT": -0.00049016, "MEAN_MOTION_DDOT": 0}, "tle": {"line1": "1 66810U 25278V   25359.83335647 -.00049016  00000+0 -83493-3 0  9999", "line2": "2 66810  43.0001 173.5717 0001382 274.6540 295.4509 15.50578861  4839"}}, "geometry": {"type": "Point", "coordinates": [37.71730016784317, -33.859522932689885]}}, {"type": "Feature", "properties": {"norad_id": 66811, "name": "STARLINK-36045", "group": "last-30-days", "lat": -34.7477101322335, "lon": 39.763296651203625, "alt_km": 417.35113453530084, "timestamp": "2025-12-26T03:50:10.807759+00:00", "meta": {"OBJECT_NAME": "STARLINK-36045", "OBJECT_ID": "2025-278W", "EPOCH": "2025-12-25T20:00:01.999008", "MEAN_MOTION": 15.50580504, "ECCENTRICITY": 0.0001453, "INCLINATION": 43.0002, "RA_OF_ASC_NODE": 173.5665, "ARG_OF_PERICENTER": 275.0603, "MEAN_ANOMALY": 296.9576, "EPHEMERIS_TYPE": 0, "CLASSIFICATION_TYPE": "U", "NORAD_CAT_ID": 66811, "ELEMENT_SET_NO": 999, "REV_AT_EPOCH": 506, "BSTAR": -0.00080055, "MEAN_MOTION_DOT": -0.00047027, "MEAN_MOTION_DDOT": 0}, "tle": {"line1": "1 66811U 25278W   25359.83335647 -.00047027  00000+0 -80055-3 0  9991", "line2": "2 66811  43.0002 173.5665 0001453 275.0603 296.9576 15.50580504  5060"}}, "geometry": {"type": "Point", "coordinates": [39.763296651203625, -34.7477101322335]}}, {"type": "Feature", "properties": {"norad_id": 66812, "name": "STARLINK-36054", "group": "last-30-days", "lat": -36.41485089502887, "lon": 43.98321739610607, "alt_km": 417.30309927304916, "timestamp": "2025-12-26T03:50:10.807770+00:00", "meta": {"OBJECT_NAME": "STARLINK-36054", "OBJECT_ID": "2025-278X", "EPOCH": "2025-12-25T20:00:01.999008", "MEAN_MOTION": 15.50500077, "ECCENTRICITY": 0.0001526, "INCLINATION": 43.0002, "RA_OF_ASC_NODE": 173.5572, "ARG_OF_PERICENTER": 270.9139, "MEAN_ANOMALY": 304.9722, "EPHEMERIS_TYPE": 0, "CLASSIFICATION_TYPE": "U", "NORAD_CAT_ID": 66812, "ELEMENT_SET_NO": 999, "REV_AT_EPOCH": 506, "BSTAR": 0.0015033, "MEAN_MOTION_DOT": 0.00088604, "MEAN_MOTION_DDOT": 0}, "tle": {"line1": "1 66812U 25278X   25359.83335647  .00088604  00000+0  15033-2 0  9999", "line2": "2 66812  43.0002 173.5572 0001526 270.9139 304.9722 15.50500077  5067"}}, "geometry": {"type": "Point", "coordinates": [43.98321739610607, -36.41485089502887]}}, {"type": "Feature", "properties": {"norad_id": 66813, "name": "STARLINK-36042", "group": "last-30-days", "lat": -37.19610382198368, "lon": 46.172501674054274, "alt_km": 417.4492963612083, "timestamp": "2025-12-26T03:50:10.807780+00:00", "meta": {"OBJECT_NAME": "STARLINK-36042", "OBJECT_ID": "2025-278Y", "EPOCH": "2025-12-25T20:00:01.999008", "MEAN_MOTION": 15.50576044, "ECCENTRICITY": 0.0001349, "INCLINATION": 43.0002, "RA_OF_ASC_NODE": 173.5512, "ARG_OF_PERICENTER": 272.7332, "MEAN_ANOMALY": 305.0365, "EPHEMERIS_TYPE": 0, "CLASSIFICATION_TYPE": "U", "NORAD_CAT_ID": 66813, "ELEMENT_SET_NO": 999, "REV_AT_EPOCH": 506, "BSTAR": -0.00062744, "MEAN_MOTION_DOT": -0.00036972, "MEAN_MOTION_DDOT": 0}, "tle": {"line1": "1 66813U 25278Y   25359.83335647 -.00036972  00000+0 -62744-3 0  9995", "line2": "2 66813  43.0002 173.5512 0001349 272.7332 305.0365 15.50576044  5062"}}, "geometry": {"type": "Point", "coordinates": [46.172501674054274, -37.19610382198368]}}, {"type": "Feature", "properties": {"norad_id": 66814, "name": "STARLINK-35984", "group": "last-30-days", "lat": -40.932362388058564, "lon": 60.146681396111184, "alt_km": 417.76073229363374, "timestamp": "2025-12-26T03:50:10.807792+00:00", "meta": {"OBJECT_NAME": "STARLINK-35984", "OBJECT_ID": "2025-278Z", "EPOCH": "2025-12-25T20:00:01.999008", "MEAN_MOTION": 15.50680707, "ECCENTRICITY": 0.0001236, "INCLINATION": 43.0001, "RA_OF_ASC_NODE": 173.5224, "ARG_OF_PERICENTER": 266.5593, "MEAN_ANOMALY": 322.6827, "EPHEMERIS_TYPE": 0, "CLASSIFICATION_TYPE": "U", "NORAD_CAT_ID": 66814, "ELEMENT_SET_NO": 999, "REV_AT_EPOCH": 515, "BSTAR": -0.0051614, "MEAN_MOTION_DOT": -0.00293134, "MEAN_MOTION_DDOT": 0}, "tle": {"line1": "1 66814U 25278Z   25359.83335647 -.00293134  00000+0 -51614-2 0  9994", "line2": "2 66814  43.0001 173.5224 0001236 266.5593 322.6827 15.50680707  5157"}}, "geometry": {"type": "Point", "coordinates": [60.146681396111184, -40.932362388058564]}}, {"type": "Feature", "properties": {"norad_id": 66815, "name": "STARLINK-35985", "group": "last-30-days", "lat": -40.43036442198272, "lon": 57.720980164203986, "alt_km": 417.4700619263176, "timestamp": "2025-12-26T03:50:10.807803+00:00", "meta": {"OBJECT_NAME": "STARLINK-35985", "OBJECT_ID": "2025-278AA", "EPOCH": "2025-12-25T20:00:01.999008", "MEAN_MOTION": 15.50575882, "ECCENTRICITY": 0.0001477, "INCLINATION": 43.0002, "RA_OF_ASC_NODE": 173.5267, "ARG_OF_PERICENTER": 275.5627, "MEAN_ANOMALY": 311.7914, "EPHEMERIS_TYPE": 0, "CLASSIFICATION_TYPE": "U", "NORAD_CAT_ID": 66815, "ELEMENT_SET_NO": 999, "REV_AT_EPOCH": 515, "BSTAR": -0.00063354, "MEAN_MOTION_DOT": -0.00037327, "MEAN_MOTION_DDOT": 0}, "tle": {"line1": "1 66815U 25278AA  25359.83335647 -.00037327  00000+0 -63354-3 0  9990", "line2": "2 66815  43.0002 173.5267 0001477 275.5627 311.7914 15.50575882  5154"}}, "geometry": {"type": "Point", "coordinates": [57.720980164203986, -40.43036442198272]}}, {"type": "Feature", "properties": {"norad_id": 66816, "name": "STARLINK-36098", "group": "last-30-days", "lat": -37.933135296959, "lon": 48.39879700463267, "alt_km": 417.4773987060571, "timestamp": "2025-12-26T03:50:10.807812+00:00", "meta": {"OBJECT_NAME": "STARLINK-36098", "OBJECT_ID": "2025-278AB", "EPOCH": "2025-12-25T20:00:01.999008", "MEAN_MOTION": 15.50575817, "ECCENTRICITY": 0.000139, "INCLINATION": 43.0002, "RA_OF_ASC_NODE": 173.5465, "ARG_OF_PERICENTER": 275.5843, "MEAN_ANOMALY": 304.106, "EPHEMERIS_TYPE": 0, "CLASSIFICATION_TYPE": "U", "NORAD_CAT_ID": 66816, "ELEMENT_SET_NO": 999, "REV_AT_EPOCH": 490, "BSTAR": -0.00068762, "MEAN_MOTION_DOT": -0.00040468, "MEAN_MOTION_DDOT": 0}, "tle": {"line1": "1 66816U 25278AB  25359.83335647 -.00040468  00000+0 -68762-3 0  9999", "line2": "2 66816  43.0002 173.5465 0001390 275.5843 304.1060 15.50575817  4907"}}, "geometry": {"type": "Point", "coordinates": [48.39879700463267, -37.933135296959]}}, {"type": "Feature", "properties": {"norad_id": 66817, "name": "STARLINK-35995", "group": "last-30-days", "lat": -39.274468158841835, "lon": 52.97457213206395, "alt_km": 417.5526894756813, "timestamp": "2025-12-26T03:50:10.807824+00:00", "meta": {"OBJECT_NAME": "STARLINK-35995", "OBJECT_ID": "2025-278AC", "EPOCH": "2025-12-25T20:00:01.999008", "MEAN_MOTION": 15.50576426, "ECCENTRICITY": 0.0001361, "INCLINATION": 43.0002, "RA_OF_ASC_NODE": 173.5368, "ARG_OF_PERICENTER": 279.2523, "MEAN_ANOMALY": 304.2681, "EPHEMERIS_TYPE": 0, "CLASSIFICATION_TYPE": "U", "NORAD_CAT_ID": 66817, "ELEMENT_SET_NO": 999, "REV_AT_EPOCH": 506, "BSTAR": -0.0006785, "MEAN_MOTION_DOT": -0.00039939, "MEAN_MOTION_DDOT": 0}, "tle": {"line1": "1 66817U 25278AC  25359.83335647 -.00039939  00000+0 -67850-3 0  9998", "line2": "2 66817  43.0002 173.5368 0001361 279.2523 304.2681 15.50576426  5069"}}, "geometry": {"type": "Point", "coordinates": [52.97457213206395, -39.274468158841835]}}, {"type": "Feature", "properties": {"norad_id": 66818, "name": "STARLINK-35994", "group": "last-30-days", "lat": -34.2582125207183, "lon": 38.61905109635086, "alt_km": 432.51089203505126, "timestamp": "2025-12-26T03:50:10.807835+00:00", "meta": {"OBJECT_NAME": "STARLINK-35994", "OBJECT_ID": "2025-278AD", "EPOCH": "2025-12-25T20:00:01.999008", "MEAN_MOTION": 15.46884644, "ECCENTRICITY": 9.62e-05, "INCLINATION": 43.0001, "RA_OF_ASC_NODE": 173.5552, "ARG_OF_PERICENTER": 280.6691, "MEAN_ANOMALY": 295.4835, "EPHEMERIS_TYPE": 0, "CLASSIFICATION_TYPE": "U", "NORAD_CAT_ID": 66818, "ELEMENT_SET_NO": 999, "REV_AT_EPOCH": 506, "BSTAR": -0.044225, "MEAN_MOTION_DOT": -0.02029292, "MEAN_MOTION_DDOT": 0}, "tle": {"line1": "1 66818U 25278AD  25359.83335647 -.02029292  00000+0 -44225-1 0  9991", "line2": "2 66818  43.0001 173.5552 0000962 280.6691 295.4835 15.46884644  5063"}}, "geometry": {"type": "Point", "coordinates": [38.61905109635086, -34.2582125207183]}}]}